ONEWEB-0055             
1 45443U 20020V   22134.90643907 -.00000212  00000+0 -63405-3 0  9991
2 45443  87.8832 318.1370 0001560  83.9531 276.1775 13.11415432106762
ONEWEB-0093             
1 45444U 20020W   22134.88176061  .00000547  00000+0  15077-2 0  9991
2 45444  87.8825 318.1684 0001557  81.1173 279.0131 13.11418288106828
ONEWEB-0029             
1 45445U 20020X   22134.90419521 -.00000153  00000+0 -46643-3 0  9995
2 45445  87.8825 318.1486 0001926  79.9688 280.1657 13.11412725106809
ONEWEB-0068             
1 45446U 20020Y   22134.87391331  .00000486  00000+0  13362-2 0  9998
2 45446  87.8825 318.1672 0001506  75.5036 284.6259 13.11418781106748
ONEWEB-0046             
1 45447U 20020Z   22134.87054482  .00000375  00000+0  10216-2 0  9994
2 45447  87.8826 318.1766 0001868  89.1460 270.9881 13.11418148106754
ONEWEB-0063             
1 45448U 20020AA  22134.89971194  .00000082  00000+0  19465-3 0  9996
2 45448  87.8819 318.1589 0001998  94.5927 265.5429 13.11413975106843
ONEWEB-0019             
1 45449U 20020AB  22134.87504864  .00000618  00000+0  17082-2 0  9998
2 45449  87.8830 318.1584 0001614  92.8201 267.3111 13.11420821106681
ONEWEB-0094             
1 45450U 20020AC  22134.89437703 -.00000010  00000+0 -58544-4 0  9997
2 45450  87.9020 302.8423 0001608  95.2468 264.8847 13.17650954109524
ONEWEB-0087             
1 45451U 20020AD  22134.75608840 -.00000396  00000+0 -11522-2 0  9995
2 45451  87.8831 318.2186 0001882  76.6037 283.5301 13.11415129106718
ONEWEB-0082             
1 45452U 20020AE  22134.45315544 -.00000398  00000+0 -11602-2 0  9990
2 45452  87.8821 318.2155 0001597  70.4890 289.6410 13.11414773106774
ONEWEB-0050             
1 45453U 20020AF  22134.86998051  .00069468  00000+0  61616-2 0  9997
2 45453  87.5392 251.4360 0024684 339.1749  20.8474 14.95638486117253
ONEWEB-0034             
1 45454U 20020AG  22134.77627817 -.00000401  00000+0 -11676-2 0  9992
2 45454  87.8822 318.1731 0001803  82.5193 277.6139 13.11419608106728
ONEWEB-0060             
1 45455U 20020AH  22134.78526552 -.00000015  00000+0 -78759-4 0  9996
2 45455  87.8829 318.1794 0001815  88.0712 272.0623 13.11418947106683
ONEWEB-0086             
1 45456U 20020AJ  22134.87952082  .00000560  00000+0  15430-2 0  9996
2 45456  87.8825 318.1529 0001678  79.8951 280.2366 13.11417376106754
ONEWEB-0088             
1 45457U 20020AK  22134.77854802 -.00000291  00000+0 -85768-3 0  9992
2 45457  87.8822 318.1880 0001903  85.2678 274.8668 13.11418558106678
ONEWEB-0102             
1 47258U 20100A   22134.88574686  .00001415  00000+0  38978-2 0  9990
2 47258  87.8813 287.6041 0001658  96.8874 263.2443 13.12434466 68724
ONEWEB-0109             
1 47259U 20100B   22134.89729391 -.00000097  00000+0 -30632-3 0  9994
2 47259  87.8855 287.6352 0001520  98.5823 261.5478 13.12443516 68553
ONEWEB-0110             
1 47260U 20100C   22134.84416314 -.00000302  00000+0 -87456-3 0  9994
2 47260  87.8866 287.6124 0001310  95.6038 264.5240 13.12445100 68716
ONEWEB-0111             
1 47261U 20100D   22134.87419687  .00000435  00000+0  11728-2 0  9997
2 47261  87.8838 287.6144 0001489  94.4508 265.6790 13.12441651 68555
ONEWEB-0114             
1 47262U 20100E   22134.90654070 -.00000379  00000+0 -10893-2 0  9990
2 47262  87.8900 287.5677 0001562 112.4558 247.6736 13.12441101 68510
ONEWEB-0117             
1 47263U 20100F   22134.89960002 -.00000194  00000+0 -57471-3 0  9993
2 47263  87.8856 287.6362 0001512  96.0109 264.1192 13.12440116 68523
ONEWEB-0118             
1 47264U 20100G   22134.85339818 -.00000060  00000+0 -20204-3 0  9991
2 47264  87.8858 287.5959 0002217 113.7082 246.4279 13.12445083 68715
ONEWEB-0119             
1 47265U 20100H   22134.88113840  .00000359  00000+0  96193-3 0  9999
2 47265  87.8813 287.6091 0001597  96.2327 263.8984 13.12443318 68694
ONEWEB-0120             
1 47266U 20100J   22134.83493170 -.00000418  00000+0 -11970-2 0  9999
2 47266  87.8887 287.6806 0001509 106.7416 253.3879 13.12442459 68714
ONEWEB-0121             
1 47267U 20100K   22134.89499513 -.00000061  00000+0 -20574-3 0  9998
2 47267  87.8858 287.7086 0001614  90.3354 269.7959 13.12442833 68637
ONEWEB-0122             
1 47268U 20100L   22134.88806890  .00000195  00000+0  50611-3 0  9999
2 47268  87.8897 287.6142 0001536  97.5007 262.6296 13.12442397 68541
ONEWEB-0123             
1 47269U 20100M   22134.88345649  .00000469  00000+0  12684-2 0  9991
2 47269  87.8828 287.6075 0001688 100.0717 260.0602 13.12441870 68680
ONEWEB-0124             
1 47270U 20100N   22134.86959603  .00000415  00000+0  11173-2 0  9995
2 47270  87.8929 287.5490 0001671  80.1886 279.9431 13.12443478 68563
ONEWEB-0125             
1 47271U 20100P   22134.84876501 -.00000470  00000+0 -13428-2 0  9997
2 47271  87.8832 287.6745 0001625 108.5174 251.6131 13.12443018 68626
ONEWEB-0126             
1 47272U 20100Q   22134.87304731  .00000458  00000+0  12374-2 0  9995
2 47272  87.8835 287.6599 0001407 101.7289 258.3997 13.12442977 68691
ONEWEB-0127             
1 47273U 20100R   22134.83722819 -.00000432  00000+0 -12376-2 0  9999
2 47273  87.8859 287.5600 0001704  99.7952 260.3369 13.12443416 68711
ONEWEB-0128             
1 47274U 20100S   22134.85802498  .00000162  00000+0  41562-3 0  9992
2 47274  87.8862 287.5934 0001342  84.9353 275.1929 13.12445158 68738
ONEWEB-0129             
1 47275U 20100T   22134.83953029 -.00000363  00000+0 -10441-2 0  9994
2 47275  87.8922 287.6455 0002020 151.7680 208.3559 13.12443258 68663
ONEWEB-0130             
1 47276U 20100U   22134.86497238  .00000375  00000+0  10061-2 0  9992
2 47276  87.8861 287.6434 0001540  92.0673 268.0632 13.12443761 68639
ONEWEB-0131             
1 47277U 20100V   22134.86264738  .00000279  00000+0  73904-3 0  9999
2 47277  87.8859 287.5905 0001651  88.9635 271.1682 13.12442708 68678
ONEWEB-0132             
1 47278U 20100W   22134.89267946  .00000035  00000+0  60512-4 0  9999
2 47278  87.8821 287.6250 0001548 106.8736 253.2563 13.12442736 68578
ONEWEB-0133             
1 47279U 20100X   22134.83259727 -.00000390  00000+0 -11195-2 0  9999
2 47279  87.8854 287.5815 0001600  98.6665 261.4644 13.12440714 68721
ONEWEB-0134             
1 47280U 20100Y   22134.87652239  .00000523  00000+0  14196-2 0  9990
2 47280  87.8868 287.5804 0001398  89.5501 270.5788 13.12442460 68706
ONEWEB-0135             
1 47281U 20100Z   22134.84647059 -.00000267  00000+0 -77633-3 0  9995
2 47281  87.8855 287.5678 0001454  98.8452 261.2841 13.12443179 68720
ONEWEB-0136             
1 47282U 20100AA  22134.86727987  .00000395  00000+0  10629-2 0  9998
2 47282  87.8909 287.6359 0000686  97.6911 262.4295 13.12445649 68653
ONEWEB-0137             
1 47283U 20100AB  22134.90423019 -.00000372  00000+0 -10686-2 0  9993
2 47283  87.8857 287.6118 0001626 107.3313 252.7993 13.12440758 68562
ONEWEB-0138             
1 47284U 20100AC  22134.87881330  .00000412  00000+0  11093-2 0  9990
2 47284  87.8880 287.6279 0001363 100.6871 259.4411 13.12443822 68643
ONEWEB-0139             
1 47285U 20100AD  22134.85110472 -.00000105  00000+0 -32862-3 0  9990
2 47285  87.8838 287.6906 0001326  94.5327 265.5953 13.12443405 68714
ONEWEB-0140             
1 47286U 20100AE  22134.87189139  .00000423  00000+0  11401-2 0  9995
2 47286  87.8837 287.6218 0001435  95.9645 264.1647 13.12443928 68680
ONEWEB-0141             
1 47287U 20100AF  22134.89615721 -.00000099  00000+0 -31134-3 0  9996
2 47287  87.8866 287.5885 0001925 108.4860 251.6478 13.12438452 68673
ONEWEB-0142             
1 47288U 20100AG  22134.88689009 -.00000375  00000+0 -10778-2 0  9993
2 47288  87.8825 287.6802 0001796 108.4584 251.6740 13.12440720 68660
ONEWEB-0143             
1 47289U 20100AH  22134.84184677 -.00000333  00000+0 -96152-3 0  9996
2 47289  87.8858 287.6196 0001652  95.8103 264.3214 13.12443939 68639
ONEWEB-0144             
1 47290U 20100AJ  22134.89036336  .00000080  00000+0  18683-3 0  9991
2 47290  87.8901 287.6001 0001487  91.9330 268.1969 13.12440004 68561
ONEWEB-0145             
1 47291U 20100AK  22134.86034620  .00000213  00000+0  55534-3 0  9997
2 47291  87.8833 287.5985 0001593  98.8738 261.2571 13.12444432 68755
ONEWEB-0146             
1 47292U 20100AL  22134.85570395  .00000024  00000+0  31326-4 0  9995
2 47292  87.8857 287.6380 0002365  75.8009 284.3382 13.12445348 68669
ONEWEB-0147             
1 47293U 20100AM  22134.90192795 -.00000226  00000+0 -66380-3 0  9999
2 47293  87.8835 287.6184 0001015 109.8410 250.2828 13.12440636 68564
ONEWEB-0115             
1 48042U 21025A   22134.87624020  .00000328  00000+0  86211-3 0  9992
2 48042  87.8934 256.9609 0001644  90.2732 269.8585 13.13469588 57434
ONEWEB-0152             
1 48043U 21025B   22134.88744031 -.00000478  00000+0 -13440-2 0  9990
2 48043  87.8979 257.0227 0001580  97.4934 262.6375 13.13470250 57395
ONEWEB-0153             
1 48044U 21025C   22134.86503703  .00000400  00000+0  10598-2 0  9992
2 48044  87.8911 257.1144 0001752 103.0682 257.0642 13.13471894 57385
ONEWEB-0154             
1 48045U 21025D   22134.86280382  .00001165  00000+0  31547-2 0  9994
2 48045  87.9005 257.0887 0001620  96.6454 263.4860 13.13469246 57349
ONEWEB-0116             
1 48046U 21025E   22134.90536972 -.00000369  00000+0 -10443-2 0  9998
2 48046  87.9003 257.0669 0002008  91.9628 268.1731 13.13470699 57497
ONEWEB-0150             
1 48047U 21025F   22134.80231629  .00000177  00000+0  44969-3 0  9995
2 48047  87.9078 256.9265 0002038 110.6564 249.4783 13.13467922 57372
ONEWEB-0107             
1 48048U 21025G   22134.88072347  .00000126  00000+0  31038-3 0  9991
2 48048  87.9049 256.9371 0001775 120.2754 239.8551 13.13469746 57365
ONEWEB-0101             
1 48049U 21025H   22134.84486817 -.00000046  00000+0 -16185-3 0  9998
2 48049  87.8904 256.9868 0001576 106.8889 253.2413 13.13470506 57334
